NORAD_CAT_ID,OBJECT_NAME,OBJECT_TYPE,EPOCH,MEAN_MOTION,ECCENTRICITY,INCLINATION,RA_OF_ASC_NODE,ARG_OF_PERICENTER,MEAN_ANOMALY,BSTAR,MEAN_MOTION_DOT,MEAN_MOTION_DDOT,TLE_LINE0,TLE_LINE1,TLE_LINE2,SEMIMAJOR_AXIS,PERIOD,APOGEE,PERIGEE,DECAYED
51714.0,STARLINK-3528,PAYLOAD,2022-03-27 14:00:01,15.54765801,0.0001155,53.2173,332.2333,65.9823,17.9628,-0.011529,-0.00713903,0.0,0 STARLINK-3528,1 51714U 22016A   22086.58334491 -.00713903  00000-0 -11529-1 0  9998,2 51714  53.2173 332.2333 0001155  65.9823  17.9628 15.54765801  3698,6780.971,92.618,403.619,402.052,0.0
51714.0,STARLINK-3528,PAYLOAD,2022-03-27 22:00:01,15.54255081,0.0001405,53.2172,330.6317,56.7599,93.7156,-0.011716,-0.00712158,0.0,0 STARLINK-3528,1 51714U 22016A   22086.91668981 -.00712158  00000-0 -11716-1 0  9998,2 51714  53.2172 330.6317 0001405  56.7599  93.7156 15.54255081  3699,6782.456,92.649,405.274,403.36800000000005,0.0
51714.0,STARLINK-3528,PAYLOAD,2022-03-28 06:00:00,15.53747582,0.000124,53.2172,329.0297,88.2301,128.0333,-0.012009,-0.00716096,0.0,0 STARLINK-3528,1 51714U 22016A   22087.25001157 -.00716096  00000-0 -12009-1 0  9993,2 51714  53.2172 329.0297 0001240  88.2301 128.0333 15.53747582  6666,6783.933000000001,92.679,406.639,404.956,0.0
51714.0,STARLINK-3528,PAYLOAD,2022-03-28 14:00:01,15.53234664,0.0001204,53.2174,327.427,83.02600000000002,198.545,-0.012145,-0.00711184,0.0,0 STARLINK-3528,1 51714U 22016A   22087.58335648 -.00711184  00000-0 -12145-1 0  9998,2 51714  53.2174 327.4270 0001204  83.0260 198.5450 15.53234664  3704,6785.426,92.71,408.108,406.474,0.0
51714.0,STARLINK-3528,PAYLOAD,2022-03-28 22:00:00,15.52726308,0.000117,53.2175,325.8294,69.2318,276.9005,-0.012416,-0.00713492,0.0,0 STARLINK-3528,1 51714U 22016A   22087.91667824 -.00713492  00000-0 -12416-1 0  9994,2 51714  53.2175 325.8294 0001170  69.2318 276.9005 15.52726308  3689,6786.906999999997,92.74,409.566,407.978,0.0
51714.0,STARLINK-3528,PAYLOAD,2022-03-29 14:00:01,15.51588699,0.0001075,53.2174,322.6304,65.0897,48.5324,-0.010147,-0.00569937,0.0,0 STARLINK-3528,1 51714U 22016A   22088.58334491 -.00569937  00000-0 -10147-1 0  9991,2 51714  53.2174 322.6304 0001075  65.0897  48.5324 15.51588699  6874,6790.224,92.808,412.819,411.359,0.0
51714.0,STARLINK-3528,PAYLOAD,2022-03-29 20:00:01,15.51324274,0.0001296999999999,53.2176,321.4365,56.575,14.1247,-0.013067,-0.00722911,0.0,0 STARLINK-3528,1 51714U 22016A   22088.83334491 -.00722911  00000-0 -13067-1 0  9996,2 51714  53.2176 321.4365 0001297  56.5750  14.1247 15.51324274  6903,6790.996,92.824,413.741,411.98,0.0
51714.0,STARLINK-3528,PAYLOAD,2022-03-29 22:00:00,15.51085332,0.0001351,53.2177,321.0366,83.8935,92.5067,-0.010291,-0.00567847,0.0,0 STARLINK-3528,1 51714U 22016A   22088.91667824 -.00567847  00000-0 -10291-1 0  9995,2 51714  53.2177 321.0366 0001351  83.8935  92.5067 15.51085332  3669,6791.693,92.838,414.476,412.64,0.0
51714.0,STARLINK-3528,PAYLOAD,2022-03-30 14:00:01,15.50090893,0.0001308,53.2173,317.8465,72.0393,228.1511,-0.011264,-0.00597549,0.0,0 STARLINK-3528,1 51714U 22016A   22089.58335648 -.00597549  00000-0 -11264-1 0  9998,2 51714  53.2173 317.8465 0001308  72.0393 228.1511 15.50090893  3666,6794.597,92.898,417.351,415.574,0.0
51714.0,STARLINK-3528,PAYLOAD,2022-03-30 20:00:01,15.4979172,0.0001357,53.2175,316.6554,66.6233,189.2291,-0.013705,-0.00718164,0.0,0 STARLINK-3528,1 51714U 22016A   22089.83334491 -.00718164  00000-0 -13705-1 0  9991,2 51714  53.2175 316.6554 0001357  66.6233 189.2291 15.49791720  7065,6795.472,92.916,418.259,416.415,0.0
51714.0,STARLINK-3528,PAYLOAD,2022-03-30 22:00:00,15.49667569,0.000123,53.2174,316.258,61.7751,299.2562,-0.013891,-0.00724208,0.0,0 STARLINK-3528,1 51714U 22016A   22089.91667824 -.00724208  00000-0 -13891-1 0  9991,2 51714  53.2174 316.2580 0001230  61.7751 299.2562 15.49667569  3725,6795.835,92.923,418.536,416.864,0.0
51714.0,STARLINK-3528,PAYLOAD,2022-03-31 14:00:01,15.48646388,0.0001219,53.2174,313.0752,72.9775,48.1193,-0.01434,-0.0072131,0.0,0 STARLINK-3528,1 51714U 22016A   22090.58334491 -.00721310  00000-0 -14340-1 0  9998,2 51714  53.2174 313.0752 0001219  72.9775  48.1193 15.48646388  3690,6798.821999999999,92.984,421.516,419.858,0.0
51714.0,STARLINK-3528,PAYLOAD,2022-03-31 22:00:00,15.48135822,0.0001424,53.2173,311.4886,63.596,116.6129,-0.014585,-0.00720657,0.0,0 STARLINK-3528,1 51714U 22016A   22090.91667824 -.00720657  00000-0 -14585-1 0  9998,2 51714  53.2173 311.4886 0001424  63.5960 116.6129 15.48135822  7239,6800.316999999999,93.015,423.15,421.213,0.0
51714.0,STARLINK-3528,PAYLOAD,2022-04-01 14:00:01,15.47115,0.0001229,53.2176,308.3132,83.046,213.5516,-0.015062,-0.00718266,0.0,0 STARLINK-3528,1 51714U 22016A   22091.58334491 -.00718266  00000-0 -15062-1 0  9997,2 51714  53.2176 308.3132 0001229  83.0460 213.5516 15.47115000  3694,6803.308000000001,93.076,426.009,424.337,0.0
51714.0,STARLINK-3528,PAYLOAD,2022-04-01 22:00:00,15.46607638,0.0001243,53.2176,306.7304,63.297,290.5731,-0.015452,-0.00723549,0.0,0 STARLINK-3528,1 51714U 22016A   22091.91667824 -.00723549  00000-0 -15452-1 0  9996,2 51714  53.2176 306.7304 0001243  63.2970 290.5731 15.46607638  7385,6804.795,93.107,427.506,425.815,0.0
51714.0,STARLINK-3528,PAYLOAD,2022-04-02 22:00:01,15.45076283,0.0001419,53.2175,301.9831,61.4742,100.6076,-0.016218,-0.00720547,0.0,0 STARLINK-3528,1 51714U 22016A   22092.91668981 -.00720547  00000-0 -16218-1 0  9998,2 51714  53.2175 301.9831 0001419  61.4742 100.6076 15.45076283  7544,6809.291,93.199,432.122,430.19,0.0
51714.0,STARLINK-3528,PAYLOAD,2022-04-03 22:00:00,15.43546966,0.000123,53.2175,297.2468,72.987,251.6619,-0.0171139999999999,-0.00721521,0.0,0 STARLINK-3528,1 51714U 22016A   22093.91667824 -.00721521  00000-0 -17114-1 0  9993,2 51714  53.2175 297.2468 0001230  72.9870 251.6619 15.43546966  7691,6813.788000000001,93.292,436.491,434.815,0.0
51714.0,STARLINK-3528,PAYLOAD,2022-04-04 14:00:01,15.42525379,0.0001199,53.2174,294.0934,69.1667,0.8411,-0.017628,-0.00718172,0.0,0 STARLINK-3528,1 51714U 22016A   22094.58334491 -.00718172  00000-0 -17628-1 0  9996,2 51714  53.2174 294.0934 0001199  69.1667   0.8411 15.42525379  3716,6816.795999999999,93.353,439.478,437.844,0.0
51714.0,STARLINK-3528,PAYLOAD,2022-04-04 22:00:00,15.41918299,0.0001295,53.2172,292.5199,64.7571,57.0724,-0.014966,-0.00598338,0.0,0 STARLINK-3528,1 51714U 22016A   22094.91667824 -.00598338  00000-0 -14966-1 0  9994,2 51714  53.2172 292.5199 0001295  64.7571  57.0724 15.41918299  3652,6818.585,93.39,441.333,439.567,0.0
51714.0,STARLINK-3528,PAYLOAD,2022-04-05 00:00:00,15.41808461,0.0001345,53.2171,292.1268,70.7839,153.8668,-0.015099,-0.00601212,0.0,0 STARLINK-3528,1 51714U 22016A   22095.00001157 -.00601212  00000-0 -15099-1 0  9990,2 51714  53.2171 292.1268 0001345  70.7839 153.8668 15.41808461  7862,6818.909000000002,93.397,441.691,439.857,0.0
51714.0,STARLINK-3528,PAYLOAD,2022-04-05 14:00:01,15.40996015,0.0001395,53.2175,289.3753,69.2994,154.2121,-0.018567,-0.00718557,0.0,0 STARLINK-3528,1 51714U 22016A   22095.58335648 -.00718557  00000-0 -18567-1 0  9992,2 51714  53.2175 289.3753 0001395  69.2994 154.2121 15.40996015  3680,6821.305,93.446,444.122,442.219,0.0
51714.0,STARLINK-3528,PAYLOAD,2022-04-05 16:00:00,15.40869085,0.0001235,53.2176,288.9832,68.5811,257.4036,-0.018688,-0.00720037,0.0,0 STARLINK-3528,1 51714U 22016A   22095.66667824 -.00720037  00000-0 -18688-1 0  9995,2 51714  53.2176 288.9832 0001235  68.5811 257.4036 15.40869085  7969,6821.68,93.454,444.388,442.703,0.0
51714.0,STARLINK-3528,PAYLOAD,2022-04-05 22:00:00,15.40485355,0.0001363,53.2175,287.8069,68.4419,204.9257,-0.018865,-0.00717816,0.0,0 STARLINK-3528,1 51714U 22016A   22095.91667824 -.00717816  00000-0 -18865-1 0  9991,2 51714  53.2175 287.8069 0001363  68.4419 204.9257 15.40485355  3684,6822.813,93.477,445.608,443.74800000000016,0.0
51714.0,STARLINK-3528,PAYLOAD,2022-04-06 14:00:01,15.39466798,0.0001227,53.2177,284.6683,64.0334,307.3384,-0.019571,-0.00719757,0.0,0 STARLINK-3528,1 51714U 22016A   22096.58334491 -.00719757  00000-0 -19571-1 0  9997,2 51714  53.2177 284.6683 0001227  64.0334 307.3384 15.39466798  3687,6825.821999999999,93.539,448.524,446.849,0.0
51714.0,STARLINK-3528,PAYLOAD,2022-04-06 22:00:00,15.3895533,0.0001222,53.2176,283.1034,64.2506,355.2038,-0.019858,-0.0071820999999999,0.0,0 STARLINK-3528,1 51714U 22016A   22096.91667824 -.00718210  00000-0 -19858-1 0  9994,2 51714  53.2176 283.1034 0001222  64.2506 355.2038 15.38955330  8157,6827.334,93.57,450.034,448.365,0.0
51714.0,STARLINK-3528,PAYLOAD,2022-04-07 14:00:01,15.37935483,0.0001458,53.2178,279.972,57.4821,96.3001,-0.020517,-0.00717681,0.0,0 STARLINK-3528,1 51714U 22016A   22097.58334491 -.00717681  00000-0 -20517-1 0  9994,2 51714  53.2178 279.9720 0001458  57.4821  96.3001 15.37935483  3681,6830.352,93.632,453.213,451.221,0.0
51714.0,STARLINK-3528,PAYLOAD,2022-04-07 22:00:00,15.37422784,0.0001384,53.2176,278.4106,73.6351,126.3914,-0.020722,-0.00713162,0.0,0 STARLINK-3528,1 51714U 22016A   22097.91667824 -.00713162  00000-0 -20722-1 0  9998,2 51714  53.2176 278.4106 0001384  73.6351 126.3914 15.37422784  8314,6831.871,93.663,454.681,452.79,0.0
51714.0,STARLINK-3528,PAYLOAD,2022-04-08 14:00:03,15.36406238,0.0001374,53.2178,275.2865,61.9924,228.8121,-0.021586,-0.00718328,0.0,0 STARLINK-3528,1 51714U 22016A   22098.58336806 -.00718328  00000-0 -21586-1 0  9993,2 51714  53.2178 275.2865 0001374  61.9924 228.8121 15.36406238  3675,6834.884,93.725,457.68800000000016,455.81,0.0
51714.0,STARLINK-3528,PAYLOAD,2022-04-08 22:00:00,15.35894565,0.0001328,53.2176,273.7288,58.5733,276.5088,-0.021859,-0.0071568,0.0,0 STARLINK-3528,1 51714U 22016A   22098.91667824 -.00715680  00000-0 -21859-1 0  9998,2 51714  53.2176 273.7288 0001328  58.5733 276.5088 15.35894565  8461,6836.401999999999,93.756,459.175,457.359,0.0
